{"type": "FeatureCollection", "features": [ {"type": "Feature", "properties": {"norad_id": 44622, "name": "GAOFEN-10R", "group": "resource", "lat": -75.5924981040865, "lon": -37.406339832347136, "alt_km": 631.8412076316863, "timestamp": "2025-12-07T18:50:16.382057+00:00", "meta": {"OBJECT_NAME": "GAOFEN-10R", "OBJECT_ID": "2019-066A", "EPOCH": "2025-12-07T06:13:57.349920", "MEAN_MOTION": 14.82763392, "ECCENTRICITY": 0.00081569, "INCLINATION": 98.0274, "RA_OF_ASC_NODE": 288.7446, "ARG_OF_PERICENTER": 57.0332, "MEAN_ANOMALY": 303.1665, "EPHEMERIS_TYPE": 0, "CLASSIFICATION_TYPE": "U", "NORAD_CAT_ID": 44622, "ELEMENT_SET_NO": 999, "REV_AT_EPOCH": 33393, "BSTAR": 0.00040555509, "MEAN_MOTION_DOT": 3.225e-05, "MEAN_MOTION_DDOT": 0}, "tle": {"line1": "1 44622U 19066A   25341.25969155  .00003225  00000+0  40556-3 0  9991", "line2": "2 44622  98.0274 288.7446 0008156  57.0332 303.1665 14.82763392333939"}}, "geometry": {"type": "Point", "coordinates": [-37.406339832347136, -75.5924981040865]}}, {"type": "Feature", "properties": {"norad_id": 44804, "name": "CARTOSAT-3", "group": "resource", "lat": 24.201822744613814, "lon": -135.19334210553254, "alt_km": 501.6220796864991, "timestamp": "2025-12-07T18:50:16.382067+00:00", "meta": {"OBJECT_NAME": "CARTOSAT-3", "OBJECT_ID": "2019-081A", "EPOCH": "2025-12-07T05:30:41.817888", "MEAN_MOTION": 15.19301472, "ECCENTRICITY": 0.00139635, "INCLINATION": 97.4589, "RA_OF_ASC_NODE": 40.8825, "ARG_OF_PERICENTER": 104.3505, "MEAN_ANOMALY": 255.9281, "EPHEMERIS_TYPE": 0, "CLASSIFICATION_TYPE": "U", "NORAD_CAT_ID": 44804, "ELEMENT_SET_NO": 999, "REV_AT_EPOCH": 33432, "BSTAR": 0.00033942921, "MEAN_MOTION_DOT": 7.115e-05, "MEAN_MOTION_DDOT": 0}, "tle": {"line1": "1 44804U 19081A   25341.22965067  .00007115  00000+0  33943-3 0  9999", "line2": "2 44804  97.4589  40.8825 0013963 104.3505 255.9281 15.19301472334321"}}, "geometry": {"type": "Point", "coordinates": [-135.19334210553254, 24.201822744613814]}}, {"type": "Feature", "properties": {"norad_id": 44819, "name": "GAOFEN-12 01", "group": "resource", "lat": -46.588758328939, "lon": 159.85106261972203, "alt_km": 633.4656334751226, "timestamp": "2025-12-07T18:50:16.382077+00:00", "meta": {"OBJECT_NAME": "GAOFEN-12 01", "OBJECT_ID": "2019-082A", "EPOCH": "2025-12-07T06:27:43.172352", "MEAN_MOTION": 14.80647694, "ECCENTRICITY": 0.00011852, "INCLINATION": 97.8126, "RA_OF_ASC_NODE": 347.6939, "ARG_OF_PERICENTER": 270.7561, "MEAN_ANOMALY": 89.3515, "EPHEMERIS_TYPE": 0, "CLASSIFICATION_TYPE": "U", "NORAD_CAT_ID": 44819, "ELEMENT_SET_NO": 999, "REV_AT_EPOCH": 32569, "BSTAR": 0.00013281991, "MEAN_MOTION_DOT": 9.69e-06, "MEAN_MOTION_DDOT": 0}, "tle": {"line1": "1 44819U 19082A   25341.26924968  .00000969  00000+0  13282-3 0  9999", "line2": "2 44819  97.8126 347.6939 0001185 270.7561  89.3515 14.80647694325690"}}, "geometry": {"type": "Point", "coordinates": [159.85106261972203, -46.588758328939]}}, {"type": "Feature", "properties": {"norad_id": 44873, "name": "CSG-1", "group": "resource", "lat": -48.31588729257878, "lon": 172.1327330924209, "alt_km": 630.0982434475154, "timestamp": "2025-12-07T18:50:16.382087+00:00", "meta": {"OBJECT_NAME": "CSG-1", "OBJECT_ID": "2019-092A", "EPOCH": "2025-12-07T06:05:46.546080", "MEAN_MOTION": 14.82152657, "ECCENTRICITY": 0.00014621, "INCLINATION": 97.8812, "RA_OF_ASC_NODE": 162.6608, "ARG_OF_PERICENTER": 86.1907, "MEAN_ANOMALY": 273.9473, "EPHEMERIS_TYPE": 0, "CLASSIFICATION_TYPE": "U", "NORAD_CAT_ID": 44873, "ELEMENT_SET_NO": 999, "REV_AT_EPOCH": 32304, "BSTAR": 0.00015976814, "MEAN_MOTION_DOT": 1.22e-05, "MEAN_MOTION_DDOT": 0}, "tle": {"line1": "1 44873U 19092A   25341.25401095  .00001220  00000+0  15977-3 0  9994", "line2": "2 44873  97.8812 162.6608 0001462  86.1907 273.9473 14.82152657323044"}}, "geometry": {"type": "Point", "coordinates": [172.1327330924209, -48.31588729257878]}}, {"type": "Feature", "properties": {"norad_id": 46277, "name": "NEMO-HD", "group": "resource", "lat": 24.06955244722615, "lon": -135.8064619395028, "alt_km": 445.22987203350476, "timestamp": "2025-12-07T18:50:16.382097+00:00", "meta": {"OBJECT_NAME": "NEMO-HD", "OBJECT_ID": "2020-061F", "EPOCH": "2025-12-07T05:41:25.001952", "MEAN_MOTION": 15.4016011, "ECCENTRICITY": 0.00021625, "INCLINATION": 97.2215, "RA_OF_ASC_NODE": 40.4058, "ARG_OF_PERICENTER": 63.5007, "MEAN_ANOMALY": 296.6461, "EPHEMERIS_TYPE": 0, "CLASSIFICATION_TYPE": "U", "NORAD_CAT_ID": 46277, "ELEMENT_SET_NO": 999, "REV_AT_EPOCH": 29239, "BSTAR": 0.00037735442, "MEAN_MOTION_DOT": 0.00015065, "MEAN_MOTION_DDOT": 0}, "tle": {"line1": "1 46277U 20061F   25341.23709493  .00015065  00000+0  37735-3 0  9991", "line2": "2 46277  97.2215  40.4058 0002162  63.5007 296.6461 15.40160110292395"}}, "geometry": {"type": "Point", "coordinates": [-135.8064619395028, 24.06955244722615]}}, {"type": "Feature", "properties": {"norad_id": 46984, "name": "SENTINEL-6A", "group": "resource", "lat": -57.30861360440713, "lon": 128.74362757517756, "alt_km": 1338.4608386214504, "timestamp": "2025-12-07T18:50:16.382107+00:00", "meta": {"OBJECT_NAME": "SENTINEL-6A", "OBJECT_ID": "2020-086A", "EPOCH": "2025-12-07T06:04:13.122624", "MEAN_MOTION": 12.80930326, "ECCENTRICITY": 0.00077423, "INCLINATION": 66.0392, "RA_OF_ASC_NODE": 173.7046, "ARG_OF_PERICENTER": 269.2363, "MEAN_ANOMALY": 90.7766, "EPHEMERIS_TYPE": 0, "CLASSIFICATION_TYPE": "U", "NORAD_CAT_ID": 46984, "ELEMENT_SET_NO": 999, "REV_AT_EPOCH": 23574, "BSTAR": 4.5197155e-05, "MEAN_MOTION_DOT": -5.1e-07, "MEAN_MOTION_DDOT": 0}, "tle": {"line1": "1 46984U 20086A   25341.25292966 -.00000051  00000+0  45197-4 0  9999", "line2": "2 46984  66.0392 173.7046 0007742 269.2363  90.7766 12.80930326235748"}}, "geometry": {"type": "Point", "coordinates": [128.74362757517756, -57.30861360440713]}}, {"type": "Feature", "properties": {"norad_id": 48079, "name": "GAOFEN-12 02", "group": "resource", "lat": -57.20326479271631, "lon": 143.2334653545501, "alt_km": 635.7837392177453, "timestamp": "2025-12-07T18:50:16.382117+00:00", "meta": {"OBJECT_NAME": "GAOFEN-12 02", "OBJECT_ID": "2021-026A", "EPOCH": "2025-12-07T06:24:47.770848", "MEAN_MOTION": 14.8066519, "ECCENTRICITY": 0.00034106, "INCLINATION": 97.9849, "RA_OF_ASC_NODE": 335.3001, "ARG_OF_PERICENTER": 111.7602, "MEAN_ANOMALY": 248.3973, "EPHEMERIS_TYPE": 0, "CLASSIFICATION_TYPE": "U", "NORAD_CAT_ID": 48079, "ELEMENT_SET_NO": 999, "REV_AT_EPOCH": 25336, "BSTAR": 0.00014054876, "MEAN_MOTION_DOT": 1.027e-05, "MEAN_MOTION_DDOT": 0}, "tle": {"line1": "1 48079U 21026A   25341.26721957  .00001027  00000+0  14055-3 0  9990", "line2": "2 48079  97.9849 335.3001 0003410 111.7602 248.3973 14.80665190253362"}}, "geometry": {"type": "Point", "coordinates": [143.2334653545501, -57.20326479271631]}}, {"type": "Feature", "properties": {"norad_id": 48268, "name": "PLEIADES NEO 3", "group": "resource", "lat": -71.21534394011113, "lon": 78.37468004196968, "alt_km": 632.2455370997031, "timestamp": "2025-12-07T18:50:16.382127+00:00", "meta": {"OBJECT_NAME": "PLEIADES NEO 3", "OBJECT_ID": "2021-034A", "EPOCH": "2025-12-07T06:12:00.937152", "MEAN_MOTION": 14.81669121, "ECCENTRICITY": 0.00012998, "INCLINATION": 97.8949, "RA_OF_ASC_NODE": 53.778, "ARG_OF_PERICENTER": 96.8524, "MEAN_ANOMALY": 263.2837, "EPHEMERIS_TYPE": 0, "CLASSIFICATION_TYPE": "U", "NORAD_CAT_ID": 48268, "ELEMENT_SET_NO": 999, "REV_AT_EPOCH": 24923, "BSTAR": 2.8000626e-05, "MEAN_MOTION_DOT": 1.68e-06, "MEAN_MOTION_DDOT": 0}, "tle": {"line1": "1 48268U 21034A   25341.25834418  .00000168  00000+0  28001-4 0  9997", "line2": "2 48268  97.8949  53.7780 0001299  96.8524 263.2837 14.81669121249231"}}, "geometry": {"type": "Point", "coordinates": [78.37468004196968, -71.21534394011113]}}, {"type": "Feature", "properties": {"norad_id": 49070, "name": "PLEIADES NEO 4", "group": "resource", "lat": 71.07705205487002, "lon": -101.8301110157478, "alt_km": 616.2939185107298, "timestamp": "2025-12-07T18:50:16.382137+00:00", "meta": {"OBJECT_NAME": "PLEIADES NEO 4", "OBJECT_ID": "2021-073E", "EPOCH": "2025-12-07T05:23:22.506720", "MEAN_MOTION": 14.81674422, "ECCENTRICITY": 0.0001306, "INCLINATION": 97.895, "RA_OF_ASC_NODE": 53.7407, "ARG_OF_PERICENTER": 94.2752, "MEAN_ANOMALY": 265.861, "EPHEMERIS_TYPE": 0, "CLASSIFICATION_TYPE": "U", "NORAD_CAT_ID": 49070, "ELEMENT_SET_NO": 999, "REV_AT_EPOCH": 23294, "BSTAR": 8.271113e-05, "MEAN_MOTION_DOT": 5.99e-06, "MEAN_MOTION_DDOT": 0}, "tle": {"line1": "1 49070U 21073E   25341.22456605  .00000599  00000+0  82711-4 0  9993", "line2": "2 49070  97.8950  53.7407 0001306  94.2752 265.8610 14.81674422232942"}}, "geometry": {"type": "Point", "coordinates": [-101.8301110157478, 71.07705205487002]}}, {"type": "Feature", "properties": {"norad_id": 49260, "name": "LANDSAT 9", "group": "resource", "lat": -21.11487911299926, "lon": -133.2284018153778, "alt_km": 708.0114465129527, "timestamp": "2025-12-07T18:50:16.382147+00:00", "meta": {"OBJECT_NAME": "LANDSAT 9", "OBJECT_ID": "2021-088A", "EPOCH": "2025-12-07T03:05:05.345376", "MEAN_MOTION": 14.57121431, "ECCENTRICITY": 0.00011072, "INCLINATION": 98.21, "RA_OF_ASC_NODE": 49.3208, "ARG_OF_PERICENTER": 94.0679, "MEAN_ANOMALY": 266.0646, "EPHEMERIS_TYPE": 0, "CLASSIFICATION_TYPE": "U", "NORAD_CAT_ID": 49260, "ELEMENT_SET_NO": 999, "REV_AT_EPOCH": 22303, "BSTAR": 0.00019577106, "MEAN_MOTION_DOT": 8.37e-06, "MEAN_MOTION_DDOT": 0}, "tle": {"line1": "1 49260U 21088A   25341.12853409  .00000837  00000+0  19577-3 0  9996", "line2": "2 49260  98.2100  49.3208 0001107  94.0679 266.0646 14.57121431223032"}}, "geometry": {"type": "Point", "coordinates": [-133.2284018153778, -21.11487911299926]}}]}